{
    "links": {
        "self": "http://www.neowsapp.com/rest/v1/neo/3766965?api_key=iIulBulltgU6a56xZRHN4H3l9WmuAYTsLGpBGhQ2"
    },
    "id": "3766965",
    "neo_reference_id": "3766965",
    "name": "(2017 BR5)",
    "designation": "2017 BR5",
    "nasa_jpl_url": "http://ssd.jpl.nasa.gov/sbdb.cgi?sstr=3766965",
    "absolute_magnitude_h": 27.6,
    "estimated_diameter": {
        "kilometers": {
            "estimated_diameter_min": 0.0080270317,
            "estimated_diameter_max": 0.0179489885
        },
        "meters": {
            "estimated_diameter_min": 8.0270316728,
            "estimated_diameter_max": 17.948988478
        },
        "miles": {
            "estimated_diameter_min": 0.0049877647,
            "estimated_diameter_max": 0.0111529809
        },
        "feet": {
            "estimated_diameter_min": 26.3354065935,
            "estimated_diameter_max": 58.8877593581
        }
    },
    "is_potentially_hazardous_asteroid": false,
    "close_approach_data": [
        {
            "close_approach_date": "2017-01-22",
            "close_approach_date_full": "2017-Jan-22 05:22",
            "epoch_date_close_approach": 1485062520000,
            "relative_velocity": {
                "kilometers_per_second": "11.2823467371",
                "kilometers_per_hour": "40616.4482535521",
                "miles_per_hour": "25237.4814162141"
            },
            "miss_distance": {
                "astronomical": "0.007252004",
                "lunar": "2.821029556",
                "kilometers": "1084884.35163148",
                "miles": "674115.876935224"
            },
            "orbiting_body": "Moon"
        },
        {
            "close_approach_date": "2017-01-22",
            "close_approach_date_full": "2017-Jan-22 05:28",
            "epoch_date_close_approach": 1485062880000,
            "relative_velocity": {
                "kilometers_per_second": "10.3616806906",
                "kilometers_per_hour": "37302.0504862122",
                "miles_per_hour": "23178.0435368356"
            },
            "miss_distance": {
                "astronomical": "0.0054194246",
                "lunar": "2.1081561694",
                "kilometers": "810734.376785602",
                "miles": "503766.9817492276"
            },
            "orbiting_body": "Earth"
        }
    ],
    "orbital_data": {
        "orbit_id": "2",
        "orbit_determination_date": "2017-04-06 08:20:53",
        "first_observation_date": "2017-01-24",
        "last_observation_date": "2017-01-26",
        "data_arc_in_days": 2,
        "observations_used": 13,
        "orbit_uncertainty": "7",
        "minimum_orbit_intersection": ".00487713",
        "jupiter_tisserand_invariant": "4.010",
        "epoch_osculation": "2459000.5",
        "eccentricity": ".4851663660052379",
        "semi_major_axis": "1.730837741396929",
        "inclination": "5.384206746417925",
        "ascending_node_longitude": "124.8096239024833",
        "orbital_period": "831.7311398396777",
        "perihelion_distance": ".8910934842586673",
        "perihelion_argument": "312.0394853937118",
        "aphelion_distance": "2.570581998535191",
        "perihelion_time": "2459405.070691815908",
        "mean_anomaly": "184.88878667955",
        "mean_motion": ".4328321770775502",
        "equinox": "J2000",
        "orbit_class": {
            "orbit_class_type": "APO",
            "orbit_class_description": "Near-Earth asteroid orbits which cross the Earth’s orbit similar to that of 1862 Apollo",
            "orbit_class_range": "a (semi-major axis) > 1.0 AU; q (perihelion) < 1.017 AU"
        }
    },
    "is_sentry_object": false
}